[{"OBJECT_NAME":"THEMIS A","OBJECT_ID":"2007-004A","EPOCH":"2024-01-23T05:48:00.741600","MEAN_MOTION":0.87833355,"ECCENTRICITY":0.8314703,"INCLINATION":10.8354,"RA_OF_ASC_NODE":277.2506,"ARG_OF_PERICENTER":293.0311,"MEAN_ANOMALY":208.7747,"EPHEMERIS_TYPE":0,"CLASSIFICATION_TYPE":"U","NORAD_CAT_ID":30580,"ELEMENT_SET_NO":999,"REV_AT_EPOCH":3357,"BSTAR":0.088068,"MEAN_MOTION_DOT":-4.3e-7,"MEAN_MOTION_DDOT":0},{"OBJECT_NAME":"SKYNET 5A","OBJECT_ID":"2007-007B","EPOCH":"2024-01-23T03:06:36.207936","MEAN_MOTION":1.00272513,"ECCENTRICITY":0.0003879,"INCLINATION":3.0556,"RA_OF_ASC_NODE":84.2028,"ARG_OF_PERICENTER":226.5272,"MEAN_ANOMALY":313.0637,"EPHEMERIS_TYPE":0,"CLASSIFICATION_TYPE":"U","NORAD_CAT_ID":30794,"ELEMENT_SET_NO":999,"REV_AT_EPOCH":6191,"BSTAR":0,"MEAN_MOTION_DOT":-2.73e-6,"MEAN_MOTION_DDOT":0},{"OBJECT_NAME":"THEMIS D","OBJECT_ID":"2007-004D","EPOCH":"2024-01-23T02:15:30.212352","MEAN_MOTION":0.87834417,"ECCENTRICITY":0.8293672,"INCLINATION":7.1286,"RA_OF_ASC_NODE":269.8619,"ARG_OF_PERICENTER":303.9648,"MEAN_ANOMALY":149.2943,"EPHEMERIS_TYPE":0,"CLASSIFICATION_TYPE":"U","NORAD_CAT_ID":30797,"ELEMENT_SET_NO":999,"REV_AT_EPOCH":3337,"BSTAR":0,"MEAN_MOTION_DOT":-7.9e-7,"MEAN_MOTION_DDOT":0},{"OBJECT_NAME":"THEMIS E","OBJECT_ID":"2007-004E","EPOCH":"2024-01-22T11:42:49.780224","MEAN_MOTION":0.87832247,"ECCENTRICITY":0.8293406,"INCLINATION":8.4104,"RA_OF_ASC_NODE":288.9582,"ARG_OF_PERICENTER":286.359,"MEAN_ANOMALY":334.2904,"EPHEMERIS_TYPE":0,"CLASSIFICATION_TYPE":"U","NORAD_CAT_ID":30798,"ELEMENT_SET_NO":999,"REV_AT_EPOCH":5820,"BSTAR":0,"MEAN_MOTION_DOT":-4.2e-7,"MEAN_MOTION_DDOT":0},{"OBJECT_NAME":"ANIK F3","OBJECT_ID":"2007-009A","EPOCH":"2024-01-23T12:05:00.163104","MEAN_MOTION":1.00275765,"ECCENTRICITY":0.0002128,"INCLINATION":0.015,"RA_OF_ASC_NODE":317.8241,"ARG_OF_PERICENTER":349.9475,"MEAN_ANOMALY":237.0721,"EPHEMERIS_TYPE":0,"CLASSIFICATION_TYPE":"U","NORAD_CAT_ID":31102,"ELEMENT_SET_NO":999,"REV_AT_EPOCH":6155,"BSTAR":0,"MEAN_MOTION_DOT":0,"MEAN_MOTION_DDOT":0},{"OBJECT_NAME":"HAIYANG-1B","OBJECT_ID":"2007-010A","EPOCH":"2024-01-23T11:25:42.543840","MEAN_MOTION":14.30531136,"ECCENTRICITY":0.0012531,"INCLINATION":98.2947,"RA_OF_ASC_NODE":32.1714,"ARG_OF_PERICENTER":279.2926,"MEAN_ANOMALY":80.684,"EPHEMERIS_TYPE":0,"CLASSIFICATION_TYPE":"U","NORAD_CAT_ID":31113,"ELEMENT_SET_NO":999,"REV_AT_EPOCH":87614,"BSTAR":0.00011158,"MEAN_MOTION_DOT":2.5e-6,"MEAN_MOTION_DDOT":0},{"OBJECT_NAME":"SAUDISAT 3","OBJECT_ID":"2007-012B","EPOCH":"2024-01-23T10:34:05.148768","MEAN_MOTION":14.69991204,"ECCENTRICITY":0.0015943,"INCLINATION":98.0404,"RA_OF_ASC_NODE":329.0097,"ARG_OF_PERICENTER":130.576,"MEAN_ANOMALY":229.6836,"EPHEMERIS_TYPE":0,"CLASSIFICATION_TYPE":"U","NORAD_CAT_ID":31118,"ELEMENT_SET_NO":999,"REV_AT_EPOCH":89907,"BSTAR":0.0001328,"MEAN_MOTION_DOT":7.48e-6,"MEAN_MOTION_DDOT":0},{"OBJECT_NAME":"SAUDICOMSAT 7","OBJECT_ID":"2007-012C","EPOCH":"2024-01-23T09:47:15.608256","MEAN_MOTION":14.63333761,"ECCENTRICITY":0.00596,"INCLINATION":98.2588,"RA_OF_ASC_NODE":336.6903,"ARG_OF_PERICENTER":60.8936,"MEAN_ANOMALY":299.8215,"EPHEMERIS_TYPE":0,"CLASSIFICATION_TYPE":"U","NORAD_CAT_ID":31119,"ELEMENT_SET_NO":999,"REV_AT_EPOCH":89426,"BSTAR":0.0003241,"MEAN_MOTION_DOT":1.666e-5,"MEAN_MOTION_DDOT":0},{"OBJECT_NAME":"SAUDICOMSAT 6","OBJECT_ID":"2007-012E","EPOCH":"2024-01-23T10:18:38.446560","MEAN_MOTION":14.60007171,"ECCENTRICITY":0.0074938,"INCLINATION":98.2931,"RA_OF_ASC_NODE":331.6448,"ARG_OF_PERICENTER":172.2246,"MEAN_ANOMALY":188.0135,"EPHEMERIS_TYPE":0,"CLASSIFICATION_TYPE":"U","NORAD_CAT_ID":31121,"ELEMENT_SET_NO":999,"REV_AT_EPOCH":89233,"BSTAR":0.00023177,"MEAN_MOTION_DOT":1.106e-5,"MEAN_MOTION_DDOT":0},{"OBJECT_NAME":"SAUDICOMSAT 5","OBJECT_ID":"2007-012H","EPOCH":"2024-01-23T02:40:24.990240","MEAN_MOTION":14.65158232,"ECCENTRICITY":0.0050151,"INCLINATION":98.2292,"RA_OF_ASC_NODE":337.4875,"ARG_OF_PERICENTER":2.6338,"MEAN_ANOMALY":357.5119,"EPHEMERIS_TYPE":0,"CLASSIFICATION_TYPE":"U","NORAD_CAT_ID":31124,"ELEMENT_SET_NO":999,"REV_AT_EPOCH":89515,"BSTAR":0.00033688,"MEAN_MOTION_DOT":1.794e-5,"MEAN_MOTION_DDOT":0},{"OBJECT_NAME":"SAUDICOMSAT 3","OBJECT_ID":"2007-012J","EPOCH":"2024-01-22T19:40:05.214720","MEAN_MOTION":14.67194014,"ECCENTRICITY":0.0040646,"INCLINATION":98.1954,"RA_OF_ASC_NODE":338.0732,"ARG_OF_PERICENTER":302.3695,"MEAN_ANOMALY":57.3578,"EPHEMERIS_TYPE":0,"CLASSIFICATION_TYPE":"U","NORAD_CAT_ID":31125,"ELEMENT_SET_NO":999,"REV_AT_EPOCH":89614,"BSTAR":0.00039688,"MEAN_MOTION_DOT":2.21e-5,"MEAN_MOTION_DDOT":0},{"OBJECT_NAME":"SAUDICOMSAT 4","OBJECT_ID":"2007-012L","EPOCH":"2024-01-22T20:24:25.692768","MEAN_MOTION":14.61804277,"ECCENTRICITY":0.0067479,"INCLINATION":98.2795,"RA_OF_ASC_NODE":334.6399,"ARG_OF_PERICENTER":115.1036,"MEAN_ANOMALY":245.7187,"EPHEMERIS_TYPE":0,"CLASSIFICATION_TYPE":"U","NORAD_CAT_ID":31127,"ELEMENT_SET_NO":999,"REV_AT_EPOCH":89327,"BSTAR":0.00023313,"MEAN_MOTION_DOT":1.151e-5,"MEAN_MOTION_DDOT":0},{"OBJECT_NAME":"AGILE","OBJECT_ID":"2007-013A","EPOCH":"2024-01-21T23:08:09.848832","MEAN_MOTION":15.90884781,"ECCENTRICITY":0.0002565,"INCLINATION":2.4646,"RA_OF_ASC_NODE":209.6114,"ARG_OF_PERICENTER":63.6321,"MEAN_ANOMALY":296.3997,"EPHEMERIS_TYPE":0,"CLASSIFICATION_TYPE":"U","NORAD_CAT_ID":31135,"ELEMENT_SET_NO":999,"REV_AT_EPOCH":56778,"BSTAR":0.00059958,"MEAN_MOTION_DOT":0.00206907,"MEAN_MOTION_DDOT":0},{"OBJECT_NAME":"ASTRA 1L","OBJECT_ID":"2007-016A","EPOCH":"2024-01-23T07:54:19.289952","MEAN_MOTION":1.00273589,"ECCENTRICITY":0.0005579,"INCLINATION":0.0824,"RA_OF_ASC_NODE":300.2511,"ARG_OF_PERICENTER":355.7189,"MEAN_ANOMALY":323.939,"EPHEMERIS_TYPE":0,"CLASSIFICATION_TYPE":"U","NORAD_CAT_ID":31306,"ELEMENT_SET_NO":999,"REV_AT_EPOCH":6125,"BSTAR":0,"MEAN_MOTION_DOT":1.21e-6,"MEAN_MOTION_DDOT":0},{"OBJECT_NAME":"GALAXY 17 (G-17)","OBJECT_ID":"2007-016B","EPOCH":"2024-01-23T11:34:48.900288","MEAN_MOTION":1.00271258,"ECCENTRICITY":0.0005097,"INCLINATION":0.7451,"RA_OF_ASC_NODE":91.3622,"ARG_OF_PERICENTER":218.9089,"MEAN_ANOMALY":260.7252,"EPHEMERIS_TYPE":0,"CLASSIFICATION_TYPE":"U","NORAD_CAT_ID":31307,"ELEMENT_SET_NO":999,"REV_AT_EPOCH":6129,"BSTAR":0,"MEAN_MOTION_DOT":-2.06e-6,"MEAN_MOTION_DDOT":0},{"OBJECT_NAME":"YAOGAN 2","OBJECT_ID":"2007-019A","EPOCH":"2024-01-23T10:48:57.709152","MEAN_MOTION":14.79177768,"ECCENTRICITY":0.0018788,"INCLINATION":98.3058,"RA_OF_ASC_NODE":202.057,"ARG_OF_PERICENTER":211.9515,"MEAN_ANOMALY":148.0557,"EPHEMERIS_TYPE":0,"CLASSIFICATION_TYPE":"U","NORAD_CAT_ID":31490,"ELEMENT_SET_NO":999,"REV_AT_EPOCH":89799,"BSTAR":0.0002681,"MEAN_MOTION_DOT":1.938e-5,"MEAN_MOTION_DDOT":0},{"OBJECT_NAME":"GLOBALSTAR M065","OBJECT_ID":"2007-020A","EPOCH":"2024-01-23T01:27:26.068032","MEAN_MOTION":12.61961904,"ECCENTRICITY":0.0009651,"INCLINATION":51.9921,"RA_OF_ASC_NODE":341.9081,"ARG_OF_PERICENTER":255.6181,"MEAN_ANOMALY":184.3364,"EPHEMERIS_TYPE":0,"CLASSIFICATION_TYPE":"U","NORAD_CAT_ID":31571,"ELEMENT_SET_NO":999,"REV_AT_EPOCH":76887,"BSTAR":1.7049e-6,"MEAN_MOTION_DOT":-1.03e-6,"MEAN_MOTION_DDOT":0}]
