30580,THEMIS A,2007,1639.47,126.0,+,10.84,Active,1,HEO,USA,USA,Civil/Government,Space Science,Delta,1 30580U 07004A   24023.24167525 -.00000043  00000+0  88068-1 0  9998,2 30580  10.8354 277.2506 8314703 293.0311 208.7747  0.87833355 33578,0.87833355,0.8314703,HEO
30794,SKYNET 5A,2007,1436.09,4700.0,+,3.06,Active,1,GSO,French Guiana,UK,Military,Communications,Ariane,1 30794U 07007B   24023.12958574 -.00000273  00000+0  00000+0 0  9990,2 30794   3.0556  84.2028 0003879 226.5272 313.0637  1.00272513 61912,1.00272513,0.0003879,GSO
30797,THEMIS D,2007,1639.45,126.0,+,7.13,Active,1,HEO,USA,USA,Civil/Government,Space Science,Delta,1 30797U 07004D   24023.09409968 -.00000079  00000+0  00000+0 0  9998,2 30797   7.1286 269.8619 8293672 303.9648 149.2943  0.87834417 33373,0.87834417,0.8293672,HEO
30798,THEMIS E,2007,1639.49,126.0,+,8.41,Active,1,HEO,USA,USA,Civil/Government,Space Science,Delta,1 30798U 07004E   24022.48807616 -.00000042  00000+0  00000+0 0  9993,2 30798   8.4104 288.9582 8293406 286.3590 334.2904  0.87832247 58204,0.87832247,0.8293406,HEO
31102,ANIK F3,2007,1436.04,4715.0,+,0.01,Active,1,GSO,Kazakhstan,Canada,Commercial,Communications,Proton,1 31102U 07009A   24023.50347411  .00000000  00000+0  00000+0 0  9997,2 31102   0.0150 317.8241 0002128 349.9475 237.0721  1.00275765 61557,1.00275765,0.0002128,GEO
31113,HAIYANG-1B,2007,100.66,-1.0,+,98.29,Active,0,LEO,PRC,China,Unknown,Unknown,Unknown,1 31113U 07010A   24023.47618685  .00000250  00000+0  11158-3 0  9998,2 31113  98.2947  32.1714 0012531 279.2926  80.6840 14.30531136876146,14.30531136,0.0012531,LEO
31118,SAUDISAT 3,2007,97.96,200.0,+,98.04,Active,1,LEO,Kazakhstan,Saudi Arabia,Government,Earth Observation,Dnepr,1 31118U 07012B   24023.44033737  .00000748  00000+0  13280-3 0  9991,2 31118  98.0404 329.0097 0015943 130.5760 229.6836 14.69991204899079,14.69991204,0.0015943,LEO
31119,SAUDICOMSAT 7,2007,98.41,12.0,+,98.26,Active,1,LEO,Kazakhstan,Saudi Arabia,Commercial,Communications,Dnepr,1 31119U 07012C   24023.40781954  .00001666  00000+0  32410-3 0  9995,2 31119  98.2588 336.6903 0059600  60.8936 299.8215 14.63333761894261,14.63333761,0.00596,LEO
31121,SAUDICOMSAT 6,2007,98.63,12.0,+,98.29,Active,1,LEO,Kazakhstan,Saudi Arabia,Commercial,Communications,Dnepr,1 31121U 07012E   24023.42961165  .00001106  00000+0  23177-3 0  9993,2 31121  98.2931 331.6448 0074938 172.2246 188.0135 14.60007171892334,14.60007171,0.0074938,LEO
31124,SAUDICOMSAT 5,2007,98.28,12.0,+,98.23,Active,1,LEO,Kazakhstan,Saudi Arabia,Commercial,Communications,Dnepr,1 31124U 07012H   24023.11140035  .00001794  00000+0  33688-3 0  9998,2 31124  98.2292 337.4875 0050151   2.6338 357.5119 14.65158232895152,14.65158232,0.0050151,LEO
31125,SAUDICOMSAT 3,2007,98.15,12.0,+,98.2,Active,1,LEO,Kazakhstan,Saudi Arabia,Commercial,Communications,Dnepr,1 31125U 07012J   24022.81950480  .00002210  00000+0  39688-3 0  9998,2 31125  98.1954 338.0732 0040646 302.3695  57.3578 14.67194014896144,14.67194014,0.0040646,LEO
31127,SAUDICOMSAT 4,2007,98.51,12.0,+,98.28,Active,1,LEO,Kazakhstan,Saudi Arabia,Commercial,Communications,Dnepr,1 31127U 07012L   24022.85029737  .00001151  00000+0  23313-3 0  9997,2 31127  98.2795 334.6399 0067479 115.1036 245.7187 14.61804277893276,14.61804277,0.0067479,LEO
31135,AGILE,2007,90.52,-1.0,+,2.46,Active,0,LEO,India,Italy,Unknown,Unknown,Unknown,1 31135U 07013A   24021.96400288  .00206907  00000+0  59958-3 0  9992,2 31135   2.4646 209.6114 0002565  63.6321 296.3997 15.90884781567788,15.90884781,0.0002565,LEO
31306,ASTRA 1L,2007,1436.07,4500.0,+,0.08,Active,1,GSO,French Guiana,SES,Commercial,Communications,Ariane,1 31306U 07016A   24023.32938993  .00000121  00000+0  00000+0 0  9996,2 31306   0.0824 300.2511 0005579 355.7189 323.9390  1.00273589 61253,1.00273589,0.0005579,GEO
31307,GALAXY 17 (G-17),2007,1436.1,4100.0,+,0.75,Active,1,GSO,French Guiana,USA,Commercial,Communications,Ariane,1 31307U 07016B   24023.48251042 -.00000206  00000+0  00000+0 0  9992,2 31307   0.7451  91.3622 0005097 218.9089 260.7252  1.00271258 61292,1.00271258,0.0005097,GEO
31490,YAOGAN 2,2007,97.35,-1.0,+,98.31,Active,0,LEO,PRC,China,Unknown,Unknown,Unknown,1 31490U 07019A   24023.45066793  .00001938  00000+0  26810-3 0  9995,2 31490  98.3058 202.0570 0018788 211.9515 148.0557 14.79177768897993,14.79177768,0.0018788,LEO
31571,GLOBALSTAR M065,2007,114.11,450.0,P,51.99,Active,1,LEO,Kazakhstan,Globalstar,Commercial,Communications,Soyuz,1 31571U 07020A   24023.06071838 -.00000103  00000+0  17049-5 0  9990,2 31571  51.9921 341.9081 0009651 255.6181 184.3364 12.61961904768875,12.61961904,0.0009651,LEO
